NORAD_CAT_ID,OBJECT_NAME,OBJECT_TYPE,EPOCH,MEAN_MOTION,ECCENTRICITY,INCLINATION,RA_OF_ASC_NODE,ARG_OF_PERICENTER,MEAN_ANOMALY,BSTAR,MEAN_MOTION_DOT,MEAN_MOTION_DDOT,TLE_LINE0,TLE_LINE1,TLE_LINE2,SEMIMAJOR_AXIS,PERIOD,APOGEE,PERIGEE,DECAYED
55404.0,STARLINK-5607,PAYLOAD,2024-04-12 04:33:29,14.98334183,0.0002853,70.0007,20.6983,271.753,88.3303,7.6457e-05,8.19e-06,0.0,0 STARLINK-5607,1 55404U 23014P   24103.18992551  .00000819  00000-0  76457-4 0  9999,2 55404  70.0007  20.6983 0002853 271.7530  88.3303 14.98334183 66781,6950.18,96.107,574.028,570.062,0.0
55404.0,STARLINK-5607,PAYLOAD,2024-04-12 22:10:58,14.98328634,0.0002912,70.0007,18.847,271.2639,88.8187,3.3583e-05,3.08e-06,0.0,0 STARLINK-5607,1 55404U 23014P   24103.92428909  .00000308  00000-0  33583-4 0  9998,2 55404  70.0007  18.8470 0002912 271.2639  88.8187 14.98328634 67838,6950.197,96.107,574.086,570.038,0.0
55404.0,STARLINK-5607,PAYLOAD,2024-04-13 04:35:30,14.98328917,0.0002771,70.0007,18.1739,267.9449,92.1393,5.6879e-05,5.86e-06,0.0,0 STARLINK-5607,1 55404U 23014P   24104.19132848  .00000586  00000-0  56879-4 0  9993,2 55404  70.0007  18.1739 0002771 267.9449  92.1393 14.98328917 66934,6950.196,96.107,573.987,570.135,0.0
55404.0,STARLINK-5607,PAYLOAD,2024-04-13 20:36:51,14.98331838,0.0002788,70.0007,16.4908,269.8534,90.2306,-4.8503e-05,-6.72e-06,0.0,0 STARLINK-5607,1 55404U 23014P   24104.85892876 -.00000672  00000-0 -48503-4 0  9993,2 55404  70.0007  16.4908 0002788 269.8534  90.2306 14.98331838 67971,6950.187,96.107,573.99,570.114,0.0
55404.0,STARLINK-5607,PAYLOAD,2024-04-14 04:37:31,14.9833511,0.000272,70.0008,15.6497,263.6541,96.4309,-5.5032e-06,-1.59e-06,0.0,0 STARLINK-5607,1 55404U 23014P   24105.19272434 -.00000159  00000-0 -55032-5 0  9999,2 55404  70.0008  15.6497 0002720 263.6541  96.4309 14.98335110 67082,6950.177,96.107,573.933,570.152,0.0
55404.0,STARLINK-5607,PAYLOAD,2024-04-14 22:15:00,14.98329804,0.0002602,70.0009,13.7975,258.9009,101.1858,-2.1433e-05,-3.49e-06,0.0,0 STARLINK-5607,1 55404U 23014P   24105.92708738 -.00000349  00000-0 -21433-4 0  9999,2 55404  70.0009  13.7975 0002602 258.9009 101.1858 14.98329804 68131,6950.193,96.107,573.867,570.25,0.0
55404.0,STARLINK-5607,PAYLOAD,2024-04-15 04:39:32,14.98331852,0.0002518,70.0013,13.1252,254.1229,105.9653,2.0335e-05,1.5e-06,0.0,0 STARLINK-5607,1 55404U 23014P   24106.19412456  .00000150  00000-0  20335-4 0  9996,2 55404  70.0013  13.1252 0002518 254.1229 105.9653 14.98331852 67237,6950.187,96.107,573.802,570.302,0.0
55404.0,STARLINK-5607,PAYLOAD,2024-04-15 20:40:52,14.98331546,0.0002514,70.0015,11.4423,249.6928,110.3961,1.4797e-05,8.4e-07,0.0,0 STARLINK-5607,1 55404U 23014P   24106.86172385  .00000084  00000-0  14797-4 0  9995,2 55404  70.0015  11.4423 0002514 249.6928 110.3961 14.98331546 68278,6950.188,96.107,573.8,570.306,0.0
55404.0,STARLINK-5607,PAYLOAD,2024-04-16 11:06:04,14.98336773,0.0002802,70.0011,9.9255,267.7173,92.3665,7.2459e-05,7.72e-06,0.0,0 STARLINK-5607,1 55404U 23014P   24107.46255748  .00000772  00000-0  72459-4 0  9990,2 55404  70.0011   9.9255 0002802 267.7173  92.3665 14.98336773 67425,6950.172,96.107,573.984,570.09,0.0
55404.0,STARLINK-5607,PAYLOAD,2024-04-16 22:19:01,14.9833746,0.0002844,70.0005,8.747,268.2321,91.8512,6.2037e-05,6.47e-06,0.0,0 STARLINK-5607,1 55404U 23014P   24107.92987537  .00000647  00000-0  62037-4 0  9991,2 55404  70.0005   8.7470 0002844 268.2321  91.8512 14.98337460 68432,6950.17,96.107,574.011,570.058,0.0
55404.0,STARLINK-5607,PAYLOAD,2024-04-17 03:07:24,14.98342239,0.0002405,70.0012,8.2423,265.2989,94.7895,0.00014322,1.617e-05,0.0,0 STARLINK-5607,1 55404U 23014P   24108.13014940  .00001617  00000-0  14322-3 0  9995,2 55404  70.0012   8.2423 0002405 265.2989  94.7895 14.98342239 68462,6950.155,96.106,573.692,570.349,0.0
55404.0,STARLINK-5607,PAYLOAD,2024-04-17 19:08:48,14.98311707,0.0003339,69.9998,6.5595,272.0064,88.0712,-0.00019201,-2.382e-05,0.0,0 STARLINK-5607,1 55404U 23014P   24108.79777796 -.00002382  00000-0 -19201-3 0  9995,2 55404  69.9998   6.5595 0003339 272.0064  88.0712 14.98311707 67627,6950.249,96.108,574.435,569.794,0.0
55404.0,STARLINK-5607,PAYLOAD,2024-04-17 20:44:56,14.98310942,0.0003388,69.9998,6.3911,271.2884,88.7887,-0.0001961,-2.431e-05,0.0,0 STARLINK-5607,1 55404U 23014P   24108.86453907 -.00002431  00000-0 -19610-3 0  9997,2 55404  69.9998   6.3911 0003388 271.2884  88.7887 14.98310942 68577,6950.252,96.108,574.472,569.762,0.0
55404.0,STARLINK-5607,PAYLOAD,2024-04-18 03:09:28,14.98320033,0.0003117,70.0004,5.7182,268.2616,91.8186,-0.00023961,-2.95e-05,0.0,0 STARLINK-5607,1 55404U 23014P   24109.13157725 -.00002950  00000-0 -23961-3 0  9997,2 55404  70.0004   5.7182 0003117 268.2616  91.8186 14.98320033 67679,6950.224,96.108,574.255,569.922,0.0
55404.0,STARLINK-5607,PAYLOAD,2024-04-18 20:46:56,14.98327505,0.0003308,69.9998,3.8663,268.4172,91.6608,-4.6093e-05,-6.43e-06,0.0,0 STARLINK-5607,1 55404U 23014P   24109.86592929 -.00000643  00000-0 -46093-4 0  9995,2 55404  69.9998   3.8663 0003308 268.4172  91.6608 14.98327505 67782,6950.201,96.107,574.365,569.766,0.0
55404.0,STARLINK-5607,PAYLOAD,2024-04-19 03:11:27,14.98343629,0.0003041,70.0005,3.1947,258.9639,101.1178,1.8289e-05,1.25e-06,0.0,0 STARLINK-5607,1 55404U 23014P   24110.13295653  .00000125  00000-0  18289-4 0  9990,2 55404  70.0005   3.1947 0003041 258.9639 101.1178 14.98343629 67827,6950.151,96.106,574.129,569.902,0.0
55404.0,STARLINK-5607,PAYLOAD,2024-04-19 20:48:56,14.98325462,0.0002943,70.001,1.3428,253.9207,106.1628,0.00026177,3.031e-05,0.0,0 STARLINK-5607,1 55404U 23014P   24110.86732140  .00003031  00000-0  26177-3 0  9990,2 55404  70.0010   1.3428 0002943 253.9207 106.1628 14.98325462 67935,6950.207,96.107,574.117,570.026,0.0
55404.0,STARLINK-5607,PAYLOAD,2024-04-19 22:25:04,14.98325418,0.0002584,70.002,1.1741,243.6521,116.4373,0.00033833,3.946e-05,0.0,0 STARLINK-5607,1 55404U 23014P   24110.93407935  .00003946  00000-0  33833-3 0  9991,2 55404  70.0020   1.1741 0002584 243.6521 116.4373 14.98325418 68885,6950.207,96.107,573.868,570.276,0.0
55404.0,STARLINK-5607,PAYLOAD,2024-04-20 03:13:27,14.98342538,0.0002963,70.0011,0.6712,239.9441,120.1425,0.00040806,4.781e-05,0.0,0 STARLINK-5607,1 55404U 23014P   24111.13434524  .00004781  00000-0  40806-3 0  9994,2 55404  70.0011   0.6712 0002963 239.9441 120.1425 14.98342538 67978,6950.154,96.106,574.078,569.96,0.0
55404.0,STARLINK-5607,PAYLOAD,2024-04-20 19:14:51,14.98313441,0.0002875,70.0015,358.9878,253.6721,106.4122,-0.00026455,-3.247e-05,0.0,0 STARLINK-5607,1 55404U 23014P   24111.80198584 -.00003247  00000-0 -26455-3 0  9993,2 55404  70.0015 358.9878 0002875 253.6721 106.4122 14.98313441 68074,6950.244,96.108,574.107,570.111,0.0
55404.0,STARLINK-5607,PAYLOAD,2024-04-20 20:50:59,14.98312017,0.0002941,70.0014,358.8194,252.0502,108.0336,-0.00027901,-3.419e-05,0.0,0 STARLINK-5607,1 55404U 23014P   24111.86874754 -.00003419  00000-0 -27901-3 0  9997,2 55404  70.0014 358.8194 0002941 252.0502 108.0336 14.98312017 69026,6950.249,96.108,574.158,570.069,0.0
55404.0,STARLINK-5607,PAYLOAD,2024-04-21 03:15:32,14.9831009,0.0002909,70.0012,358.1456,251.4221,108.6622,-0.00028068,-3.439e-05,0.0,0 STARLINK-5607,1 55404U 23014P   24112.13579163 -.00003439  00000-0 -28068-3 0  9991,2 55404  70.0012 358.1456 0002909 251.4221 108.6622 14.98310090 69060,6950.254,96.108,574.141,570.098,0.0
55404.0,STARLINK-5607,PAYLOAD,2024-04-21 20:52:59,14.98339721,0.0002433,70.0021,356.295,243.1311,116.9599,-8.3547e-05,-1.09e-05,0.0,0 STARLINK-5607,1 55404U 23014P   24112.87013076 -.00001090  00000-0 -83547-4 0  9993,2 55404  70.0021 356.2950 0002433 243.1311 116.9599 14.98339721 68233,6950.163,96.106,573.719,570.337,0.0
55404.0,STARLINK-5607,PAYLOAD,2024-04-21 22:29:07,14.98337603,0.0002561,70.0014,356.1261,253.3608,106.727,-7.2544e-05,-9.59e-06,0.0,0 STARLINK-5607,1 55404U 23014P   24112.93689085 -.00000959  00000-0 -72544-4 0  9997,2 55404  70.0014 356.1261 0002561 253.3608 106.7270 14.98337603 69188,6950.169,96.107,573.814,570.254,0.0
55404.0,STARLINK-5607,PAYLOAD,2024-04-22 01:41:22,14.98355532,0.0002528,70.0013,355.7859,277.8861,82.2011,4.264e-05,4.16e-06,0.0,0 STARLINK-5607,1 55404U 23014P   24113.07039622  .00000416  00000-0  42640-4 0  9999,2 55404  70.0013 355.7859 0002528 277.8861  82.2011 14.98355532 68260,6950.114,96.105,573.736,570.222,0.0
55404.0,STARLINK-5607,PAYLOAD,2024-04-22 20:55:00,14.98317326,0.0003113,70.0006,353.7676,264.6369,95.4435,0.00025047,2.896e-05,0.0,0 STARLINK-5607,1 55404U 23014P   24113.87153438  .00002896  00000-0  25047-3 0  9994,2 55404  70.0006 353.7676 0003113 264.6369  95.4435 14.98317326 68383,6950.232,96.108,574.261,569.933,0.0
55404.0,STARLINK-5607,PAYLOAD,2024-04-22 22:31:08,14.98320129,0.0002972,70.0006,353.5988,258.7074,101.3751,0.00027082,3.139e-05,0.0,0 STARLINK-5607,1 55404U 23014P   24113.93829230  .00003139  00000-0  27082-3 0  9993,2 55404  70.0006 353.5988 0002972 258.7074 101.3751 14.98320129 69335,6950.223,96.108,574.154,570.023,0.0
55404.0,STARLINK-5607,PAYLOAD,2024-04-23 01:43:24,14.98324087,0.0002921,70.0008,353.2626,260.6333,99.4496,0.00030774,3.58e-05,0.0,0 STARLINK-5607,1 55404U 23014P   24114.07180938  .00003580  00000-0  30774-3 0  9996,2 55404  70.0008 353.2626 0002921 260.6333  99.4496 14.98324087 68415,6950.211,96.107,574.106,570.046,0.0
55404.0,STARLINK-5607,PAYLOAD,2024-04-23 22:33:08,14.98338881,0.0002824,70.0008,351.0742,264.465,95.6187,-4.0674e-05,-5.78e-06,0.0,0 STARLINK-5607,1 55404U 23014P   24114.93968722 -.00000578  00000-0 -40674-4 0  9993,2 55404  70.0008 351.0742 0002824 264.4650  95.6187 14.98338881 69486,6950.165,96.106,573.993,570.068,0.0
55404.0,STARLINK-5607,PAYLOAD,2024-04-24 01:45:25,14.98341352,0.0002771,70.0011,350.7354,272.7321,87.3521,-7.8257e-05,-1.027e-05,0.0,0 STARLINK-5607,1 55404U 23014P   24115.07320640 -.00001027  00000-0 -78257-4 0  9998,2 55404  70.0011 350.7354 0002771 272.7321  87.3521 14.98341352 68568,6950.158,96.106,573.949,570.097,0.0
